[{"OBJECT_NAME":"STARLINK-36517","OBJECT_ID":"2026-008K","EPOCH":"2026-03-09T10:56:23.735328","MEAN_MOTION":15.27599223,"ECCENTRICITY":0.0002153,"INCLINATION":42.9956,"RA_OF_ASC_NODE":206.7869,"ARG_OF_PERICENTER":179.317,"MEAN_ANOMALY":180.7685,"EPHEMERIS_TYPE":0,"CLASSIFICATION_TYPE":"U","NORAD_CAT_ID":67454,"ELEMENT_SET_NO":999,"REV_AT_EPOCH":953,"BSTAR":0.00089482044,"MEAN_MOTION_DOT":0.00024458,"MEAN_MOTION_DDOT":0},{"OBJECT_NAME":"COSMOS 2251 DEB","OBJECT_ID":"1993-036BXP","EPOCH":"2026-03-04T07:23:49.847712","MEAN_MOTION":15.24789556,"ECCENTRICITY":0.00190834,"INCLINATION":73.9759,"RA_OF_ASC_NODE":64.3004,"ARG_OF_PERICENTER":239.4537,"MEAN_ANOMALY":120.4779,"EPHEMERIS_TYPE":0,"CLASSIFICATION_TYPE":"U","NORAD_CAT_ID":47059,"ELEMENT_SET_NO":999,"REV_AT_EPOCH":9543,"BSTAR":0.0048704033,"MEAN_MOTION_DOT":0.00123422,"MEAN_MOTION_DDOT":0}]
